QIANFAN-105             
1 66047U 25233Q   25344.20231941  .00000444  00000+0  29659-3 0  9993
2 66047  88.9961  62.4130 0016841  51.1396 309.1282 13.99265182  7634
QIANFAN-106             
1 66048U 25233R   25344.04577983  .00000095  00000+0  68503-4 0  9999
2 66048  88.9974  62.4453 0016451  52.6682 307.5986 13.88142984  7600
QIANFAN-107             
1 66049U 25233S   25343.88547294  .00000197  00000+0  15860-3 0  9993
2 66049  88.9989  62.4633 0016881  50.8352 309.4315 13.86389890  7589
QIANFAN-108             
1 66050U 25233T   25343.60414749  .00000253  00000+0  20105-3 0  9994
2 66050  89.0013  62.4893 0016923  61.4703 298.8171 13.88059636  7545
